Unnamed: 0,NORAD_CAT_ID,OBJECT_NAME,EPOCH,MEAN_MOTION,ECCENTRICITY,INCLINATION,RA_OF_ASC_NODE,ARG_OF_PERICENTER,MEAN_ANOMALY,BSTAR,MEAN_MOTION_DOT,MEAN_MOTION_DDOT,TLE_LINE1,TLE_LINE2,SEMIMAJOR_AXIS,PERIOD,APOGEE,PERIGEE,alltitude
1104959,48481,STARLINK-2706,2021-06-10 22:00:00.999936,15.4161517,0.0001301,53.0479,62.4466,86.426,27.0382,-0.025802,-0.01004271,0,1 48481U 21040BF  21161.91667824 -.01004271  00000-0 -25802-1 0  9991,2 48481  53.0479  62.4466 0001301  86.4260  27.0382 15.41615170  1761,6819.479,93.409,442.231,440.457,445.7431423626907
1102861,48481,STARLINK-2706,2021-06-10 14:00:01.224000,15.42441662,0.0001174,53.0484,64.0461,82.5766,339.3478,-0.026967,-0.01087468,0,1 48481U 21040BF  21161.58334491 -.01087468  00000-0 -26967-1 0  9997,2 48481  53.0484  64.0461 0001174  82.5766 339.3478 15.42441662  1877,6817.043,93.358,439.708,438.107,442.8200139269176
1101829,48481,STARLINK-2706,2021-06-10 12:00:00.999648,15.42635573,0.0001128,53.0486,64.4402,90.9642,227.9361,-0.026799,-0.01087759,0,1 48481U 21040BF  21161.50001157 -.01087759  00000-0 -26799-1 0  9995,2 48481  53.0486  64.4402 0001128  90.9642 227.9361 15.42635573  6361,6816.471,93.347,439.105,437.567,448.7430311635546
1100291,48481,STARLINK-2706,2021-06-09 22:00:00.999936,15.43994675,0.0001142,53.0506,67.225,77.4299,238.6675,-0.025624,-0.01089088,0,1 48481U 21040BF  21160.91667824 -.01089088  00000-0 -25624-1 0  9991,2 48481  53.0506  67.2250 0001142  77.4299 238.6675 15.43994675  1825,6812.471,93.265,435.114,433.558,445.41321400548907
1098384,48481,STARLINK-2706,2021-06-09 14:00:01.999872,15.44771381,0.0001211,53.0503,68.8045,79.32,182.53,-0.024984,-0.01090391,0,1 48481U 21040BF  21160.58335648 -.01090391  00000-0 -24984-1 0  9997,2 48481  53.0503  68.8045 0001211  79.3200 182.5300 15.44771381  1764,6810.187,93.218,432.877,431.227,451.060523237382
1096886,48481,STARLINK-2706,2021-06-09 06:00:00.999648,15.45549298,0.000128,53.0471,70.3973,84.0833,122.4525,-0.024344,-0.01075971,0,1 48481U 21040BF  21160.25001157 -.01075971  00000-0 -24344-1 0  9993,2 48481  53.0471  70.3973 0001280  84.0833 122.4525 15.45549298  6170,6807.902,93.171,430.638,428.895,436.1290981685311
1095968,48481,STARLINK-2706,2021-06-08 22:00:00.999936,15.46331453,0.0001307,53.0494,72.0369,76.146,74.2021,-0.023709,-0.0107662,0,1 48481U 21040BF  21159.91667824 -.01076620  00000-0 -23709-1 0  9999,2 48481  53.0494  72.0369 0001307  76.1460  74.2021 15.46331453  1972,6805.606,93.124,428.36,426.581,428.0102494030324
1095099,48481,STARLINK-2706,2021-06-08 20:00:01.224000,15.46526589,0.0001163,53.0493,72.4315,72.4774,333.6787,-0.023583,-0.01078003,0,1 48481U 21040BF  21159.83334491 -.01078003  00000-0 -23583-1 0  9998,2 48481  53.0493  72.4315 0001163  72.4774 333.6787 15.46526589  6100,6805.033,93.112,427.69,426.107,428.8120304359263
1093905,48481,STARLINK-2706,2021-06-08 14:00:01.224000,15.47110563,0.0001244,53.0492,73.6171,72.3689,20.8607,-0.023126,-0.01078792,0,1 48481U 21040BF  21159.58334491 -.01078792  00000-0 -23126-1 0  9998,2 48481  53.0492  73.6171 0001244  72.3689  20.8607 15.47110563  1929,6803.321,93.077,426.032,424.339,430.894642994312
1091755,48481,STARLINK-2706,2021-06-08 04:00:00.999936,15.48084906,0.0001163,53.0493,75.6007,81.3169,209.1949,-0.022384,-0.01080277,0,1 48481U 21040BF  21159.16667824 -.01080277  00000-0 -22384-1 0  9997,2 48481  53.0493  75.6007 0001163  81.3169 209.1949 15.48084906  6000,6800.466,93.018,423.122,421.54,439.71897027577984
1091118,48481,STARLINK-2706,2021-06-07 22:00:00.999936,15.48669811,0.000111,53.0494,76.7913,78.4827,257.6966,-0.021946,-0.010811,0,1 48481U 21040BF  21158.91667824 -.01081100  00000-0 -21946-1 0  9998,2 48481  53.0494  76.7913 0001110  78.4827 257.6966 15.48669811  1825,6798.753,92.983,421.373,419.864,426.027990827089
1089017,48481,STARLINK-2706,2021-06-07 14:00:01.224000,15.4945061,0.0001177,53.0492,78.384,75.4602,200.787,-0.021374,-0.01082343,0,1 48481U 21040BF  21158.58334491 -.01082343  00000-0 -21374-1 0  9997,2 48481  53.0492  78.3840 0001177  75.4602 200.7870 15.49450610  1819,6796.469,92.936,419.134,417.534,437.3887769268626
1088777,48481,STARLINK-2706,2021-06-07 14:00:01.224000,15.4945061,0.0001177,53.0492,78.384,75.4602,200.787,-0.021374,-0.01082343,0,1 48481U 21040BF  21158.58334491 -.01082343  00000-0 -21374-1 0  9997,2 48481  53.0492  78.3840 0001177  75.4602 200.7870 15.49450610  5914,6796.469,92.936,419.134,417.534,437.3887769268626
1086050,48481,STARLINK-2706,2021-06-06 22:00:00.999936,15.50942746,0.0001255,53.0471,81.5825,88.621,64.9797,-0.018448,-0.00993571,0,1 48481U 21040BF  21157.91667824 -.00993571  00000-0 -18448-1 0  9993,2 48481  53.0471  81.5825 0001255  88.6210  64.9797 15.50942746  1763,6792.109,92.847,414.827,413.122,414.1484848927119
1085424,48481,STARLINK-2706,2021-06-06 20:00:01.224000,15.51211813,0.000119,53.0491,81.9983,67.6283,340.3317,-0.020126,-0.01085109,0,1 48481U 21040BF  21157.83334491 -.01085109  00000-0 -20126-1 0  9991,2 48481  53.0491  81.9983 0001190  67.6283 340.3317 15.51211813  5790,6791.324,92.831,413.997,412.381,415.2871881346562
1084226,48481,STARLINK-2706,2021-06-06 14:00:01.224000,15.51798638,0.0001257,53.0489,83.1972,68.1606,22.6466,-0.019719,-0.01085852,0,1 48481U 21040BF  21157.58334491 -.01085852  00000-0 -19719-1 0  9994,2 48481  53.0489  83.1972 0001257  68.1606  22.6466 15.51798638  1761,6789.612,92.796,412.33,410.623,417.2120275648018
1081995,48481,STARLINK-2706,2021-06-06 04:00:01.999584,15.52779301,0.0001195,53.049,85.2121,71.5223,209.5808,-0.019059,-0.01087349,0,1 48481U 21040BF  21157.16668981 -.01087349  00000-0 -19059-1 0  9992,2 48481  53.0490  85.2121 0001195  71.5223 209.5808 15.52779301  5695,6786.753,92.737,409.429,407.807,427.2679946282041
1081183,48481,STARLINK-2706,2021-06-05 22:00:00.999936,15.53361479,0.0001109,53.049,86.4128,70.5216,251.9539,-0.018518,-0.01079896,0,1 48481U 21040BF  21156.91667824 -.01079896  00000-0 -18518-1 0  9996,2 48481  53.0490  86.4128 0001109  70.5216 251.9539 15.53361479  1772,6785.057,92.702,407.674,406.169,416.0502823531585
1079149,48481,STARLINK-2706,2021-06-05 14:00:01.999872,15.54153105,0.0001202,53.0492,88.0296,78.1864,178.7689,-0.018159,-0.01089241,0,1 48481U 21040BF  21156.58335648 -.01089241  00000-0 -18159-1 0  9991,2 48481  53.0492  88.0296 0001202  78.1864 178.7689 15.54153105  1762,6782.753,92.655,405.433,403.802,423.1606581574224
1078359,48481,STARLINK-2706,2021-06-05 12:00:00.999648,15.5434938,0.0001264,53.0494,88.4331,81.2456,69.1018,-0.018029,-0.01089301,0,1 48481U 21040BF  21156.50001157 -.01089301  00000-0 -18029-1 0  9991,2 48481  53.0494  88.4331 0001264  81.2456  69.1018 15.54349380  5583,6782.182,92.643,404.904,403.189,404.5240780743311
1077284,48481,STARLINK-2706,2021-06-05 06:00:00.999648,15.54850757,0.0001355,53.0491,89.6402,86.2166,104.1943,-0.015701,-0.00976536,0,1 48481U 21040BF  21156.25001157 -.00976536  00000-0 -15701-1 0  9991,2 48481  53.0491  89.6402 0001355  86.2166 104.1943 15.54850757  5555,6780.723,92.613,403.507,401.67,405.17708901996286
1076218,48481,STARLINK-2706,2021-06-04 22:00:00.999936,15.55654558,0.0001189,53.0462,91.2537,77.4111,45.5201,-0.015658,-0.01001022,0,1 48481U 21040BF  21155.91667824 -.01001022  00000-0 -15658-1 0  9993,2 48481  53.0462  91.2537 0001189  77.4111  45.5201 15.55654558  1764,6778.388,92.566,401.059,399.447,403.7497899385415
1074502,48481,STARLINK-2706,2021-06-04 14:00:03.384000,15.56514596,0.0001136,53.0463,92.8897,72.6093,341.9949,-0.016705,-0.01093416,0,1 48481U 21040BF  21155.58336806 -.01093416  00000-0 -16705-1 0  9991,2 48481  53.0463  92.8897 0001136  72.6093 341.9949 15.56514596  1871,6775.89,92.514,398.525,396.986,400.75891468569387
1073521,48481,STARLINK-2706,2021-06-04 12:00:00.999648,15.56711436,0.0001094,53.0463,93.2925,80.7479,226.4745,-0.016587,-0.01093695,0,1 48481U 21040BF  21155.50001157 -.01093695  00000-0 -16587-1 0  9998,2 48481  53.0463  93.2925 0001094  80.7479 226.4745 15.56711436  5438,6775.319,92.503,397.925,396.443,410.7511995454005
1071848,48481,STARLINK-2706,2021-06-03 22:00:01.999584,15.58035045,0.0001182,53.0466,96.1149,88.1156,186.7801,-0.014665,-0.01023119,0,1 48481U 21040BF  21154.91668981 -.01023119  00000-0 -14665-1 0  9995,2 48481  53.0466  96.1149 0001182  88.1156 186.7801 15.58035045  1763,6771.481,92.424,394.147,392.546,412.5113660791113
1071235,48481,STARLINK-2706,2021-06-03 20:00:01.999872,15.58287727,0.0001308,53.0486,96.5321,68.3559,98.7849,-0.015648,-0.01095003,0,1 48481U 21040BF  21154.83335648 -.01095003  00000-0 -15648-1 0  9990,2 48481  53.0486  96.5321 0001308  68.3559  98.7849 15.58287727  5324,6770.749,92.409,393.5,391.729,392.8926655408847
1070299,48481,STARLINK-2706,2021-06-03 14:00:01.999872,15.58879867,0.0001234,53.0498,97.7475,83.8197,119.7882,-0.01532,-0.01096344,0,1 48481U 21040BF  21154.58335648 -.01096344  00000-0 -15320-1 0  9998,2 48481  53.0498  97.7475 0001234  83.8197 119.7882 15.58879867  1822,6769.035,92.374,391.735,390.064,396.48051589021753
1068410,48481,STARLINK-2706,2021-06-03 06:00:00.999648,15.59616637,0.0001242,53.0497,99.3681,75.8693,55.4952,-0.013941,-0.01032246,0,1 48481U 21040BF  21154.25001157 -.01032246  00000-0 -13941-1 0  9995,2 48481  53.0497  99.3681 0001242  75.8693  55.4952 15.59616637  5237,6766.903,92.33,389.608,387.927,391.2462601187841
1067250,48481,STARLINK-2706,2021-06-02 14:00:01.224000,15.61252899,0.0001026,53.0504,102.6328,94.6159,249.4526,-0.014045,-0.01100856,0,1 48481U 21040BF  21153.58334491 -.01100856  00000-0 -14045-1 0  9999,2 48481  53.0504 102.6328 0001026  94.6159 249.4526 15.61252899  1820,6762.174,92.234,384.733,383.345,387.7202915813903
1066697,48481,STARLINK-2706,2021-06-02 14:00:01.224000,15.61252899,0.0001026,53.0504,102.6328,94.6159,249.4526,-0.014045,-0.01100856,0,1 48481U 21040BF  21153.58334491 -.01100856  00000-0 -14045-1 0  9999,2 48481  53.0504 102.6328 0001026  94.6159 249.4526 15.61252899  5138,6762.174,92.234,384.733,383.345,387.7202915813903
